OBJECT_NAME,OBJECT_ID,EPOCH,MEAN_MOTION,ECCENTRICITY,INCLINATION,RA_OF_ASC_NODE,ARG_OF_PERICENTER,MEAN_ANOMALY,EPHEMERIS_TYPE,CLASSIFICATION_TYPE,NORAD_CAT_ID,ELEMENT_SET_NO,REV_AT_EPOCH,BSTAR,MEAN_MOTION_DOT,MEAN_MOTION_DDOT
SL-16 DEB,1992-093JZ,2022-06-30T16:51:06.947136,13.92011860,.0146385,71.1474,333.7372,42.4824,318.7506,0,U,39709,999,41659,.24419E-4,-.9E-7,0
SL-16 DEB,1992-093KA,2022-06-22T14:24:45.976032,14.09024870,.0084206,71.2192,298.7893,261.1151,98.0430,0,U,39710,999,42216,.64702E-3,.1113E-4,0
SL-16 DEB,1992-093KB,2022-06-30T20:04:40.396224,14.00677278,.0096329,70.8390,21.6122,258.9251,100.1018,0,U,39711,999,41931,.99029E-4,.106E-5,0
SL-16 DEB,1992-093KD,2022-06-28T09:51:30.496896,14.09010385,.0087742,71.1158,203.2997,104.8870,256.1988,0,U,39713,999,42167,.25833E-3,.418E-5,0
SL-16 DEB,1992-093KE,2022-06-30T12:03:13.205952,14.22338820,.0098338,71.0834,215.4090,238.2258,120.9261,0,U,39714,999,44657,.76483E-4,.13E-5,0
SL-16 DEB,1992-093KF,2022-06-30T08:33:31.690656,14.27672098,.0004366,71.0142,35.1106,168.9392,5.6561,0,U,39715,999,42751,.15604E-3,.336E-5,0
SL-16 DEB,1992-093KH,2022-06-28T00:50:44.891520,14.00190873,.0102366,70.6900,278.9534,225.3096,133.9645,0,U,39717,999,41925,.24937E-3,.337E-5,0
SL-16 DEB,1992-093KJ,2022-06-30T08:51:13.983840,14.38343796,.003824,71.1945,166.1775,348.1525,11.8708,0,U,39718,999,42985,.37949E-3,.1117E-4,0
SL-16 DEB,1992-093KK,2022-06-30T21:58:06.055104,13.95701462,.0099939,71.2984,264.5142,285.3800,191.4143,0,U,39719,999,41786,.44092E-4,.19E-6,0
SL-16 DEB,1992-093KL,2022-06-30T03:26:51.455040,14.45776343,.0031016,70.7908,340.0023,329.4492,30.4838,0,U,39720,999,43227,.18144E-3,.593E-5,0
SL-16 DEB,1992-093KM,2022-06-29T20:49:45.997536,13.94363911,.0128883,71.1921,256.9754,187.0806,172.8492,0,U,39721,999,97598,.12333E-3,.132E-5,0
SL-16 DEB,1992-093KN,2022-06-30T04:26:46.228992,13.99669018,.0108813,70.8949,123.4011,230.9056,192.4477,0,U,39722,999,41886,.13334E-3,.158E-5,0
SL-16 DEB,1992-093KQ,2022-06-28T23:22:25.714272,14.00913478,.0091609,70.8521,29.4651,260.5408,98.5343,0,U,39724,999,41911,.13533E-3,.162E-5,0
SL-16 DEB,1992-093KR,2022-06-30T20:41:59.278560,14.10628326,.0092866,71.1740,252.6166,338.5199,21.2035,0,U,39725,999,44288,.392E-3,.682E-5,0
SL-16 DEB,1992-093KS,2022-06-30T17:30:45.255744,13.90641584,.012309,71.1582,297.2095,343.6595,86.6663,0,U,39726,999,41625,.33914E-4,.1E-7,0
LUCH 5V,2014-023A,2022-07-01T02:02:48.471072,1.00268474,.0003755,1.5286,75.6799,50.4150,278.4189,0,U,39727,999,54799,0,-.26E-5,0
KAZSAT-3,2014-023B,2022-06-30T14:45:39.855168,1.00271350,.0000635,0.0246,83.4629,143.4502,331.6467,0,U,39728,999,2793,0,.69E-6,0
BREEZE-M R/B,2014-023C,2022-06-29T20:44:33.792864,0.92544574,.0623311,6.5612,61.5663,172.1035,188.7390,0,U,39729,999,2757,0,-.172E-5,0
KAZEOSAT 1,2014-024A,2022-06-30T19:26:28.168800,14.41993851,.0001189,98.4636,257.1923,94.5173,265.6148,0,U,39731,999,43001,.43388E-4,.98E-6,0
NAVSTAR 70 (USA 251),2014-026A,2022-06-30T14:07:20.988768,2.00555298,.0026512,56.5738,27.7175,307.6000,52.2144,0,U,39741,999,5950,0,-.78E-6,0
DELTA 4 R/B,2014-026B,2022-06-26T13:21:31.328640,1.93899357,.0015448,56.4176,35.3364,101.5580,258.6749,0,U,39742,999,5492,0,-.92E-6,0
COSMOS 2496,2014-028A,2022-07-01T05:51:40.370400,12.42891813,.0019211,82.4459,295.0502,355.3455,4.7449,0,U,39761,999,36783,-.34775E-4,.5E-7,0
COSMOS 2497,2014-028B,2022-06-30T19:31:27.485184,12.42872806,.0019866,82.4511,296.4364,349.2566,10.8093,0,U,39762,999,36778,.18792E-4,.12E-6,0
COSMOS 2498,2014-028C,2022-06-30T20:45:03.300192,12.42905095,.0020135,82.4471,295.4534,349.4112,10.6538,0,U,39763,999,36779,-.61233E-4,.1E-7,0
BREEZE-KM R/B,2014-028D,2022-06-30T21:02:24.196416,12.83518425,.0229337,82.4402,147.8879,155.9350,205.2676,0,U,39764,999,37978,-.33407E-4,.3E-7,0
COSMOS 2499 (RS-47),2014-028E,2022-06-30T21:29:12.441696,12.83006685,.0230935,82.4415,149.1424,158.9534,202.1266,0,U,39765,999,37944,.81521E-4,.34E-6,0
ALOS-2,2014-029A,2022-07-01T04:50:50.627904,14.79470701,.0001623,97.9217,279.1330,89.7383,270.4032,0,U,39766,999,43766,-.45162E-5,-.85E-6,0
UNIFORM 1,2014-029B,2022-07-01T03:49:51.031488,14.84603349,.000709,97.8397,274.7048,55.3486,304.8399,0,U,39767,999,43881,.92385E-4,.727E-5,0
SOCRATES,2014-029C,2022-07-01T00:06:51.354720,14.85112895,.0008104,97.8669,280.2128,70.9486,289.2587,0,U,39768,999,43897,.97558E-4,.781E-5,0
RISING 2,2014-029D,2022-07-01T04:05:56.577408,14.82586264,.0005399,97.8002,265.2371,49.0522,311.1156,0,U,39769,999,43836,.64805E-4,.47E-5,0
SPROUT,2014-029E,2022-07-01T00:08:21.950304,14.91024350,.0009536,97.9443,299.0287,50.0090,310.1933,0,U,39770,999,43968,.39943E-3,.3897E-4,0
