SL-16 DEB               
1 39709U 92093JZ  22181.70216374 -.00000009  00000+0  24419-4 0  9998
2 39709  71.1474 333.7372 0146385  42.4824 318.7506 13.92011860416599
SL-16 DEB               
1 39710U 92093KA  22173.60053213  .00001113  00000+0  64702-3 0  9995
2 39710  71.2192 298.7893 0084206 261.1151  98.0430 14.09024870422161
SL-16 DEB               
1 39711U 92093KB  22181.83657866  .00000106  00000+0  99029-4 0  9996
2 39711  70.8390  21.6122 0096329 258.9251 100.1018 14.00677278419316
SL-16 DEB               
1 39713U 92093KD  22179.41076964  .00000418  00000+0  25833-3 0  9990
2 39713  71.1158 203.2997 0087742 104.8870 256.1988 14.09010385421676
SL-16 DEB               
1 39714U 92093KE  22181.50223618  .00000130  00000+0  76483-4 0  9993
2 39714  71.0834 215.4090 0098338 238.2258 120.9261 14.22338820446571
SL-16 DEB               
1 39715U 92093KF  22181.35661679  .00000336  00000+0  15604-3 0  9995
2 39715  71.0142  35.1106 0004366 168.9392   5.6561 14.27672098427513
SL-16 DEB               
1 39717U 92093KH  22179.03524180  .00000337  00000+0  24937-3 0  9994
2 39717  70.6900 278.9534 0102366 225.3096 133.9645 14.00190873419259
SL-16 DEB               
1 39718U 92093KJ  22181.36891185  .00001117  00000+0  37949-3 0  9990
2 39718  71.1945 166.1775 0038240 348.1525  11.8708 14.38343796429856
SL-16 DEB               
1 39719U 92093KK  22181.91534786  .00000019  00000+0  44092-4 0  9991
2 39719  71.2984 264.5142 0099939 285.3800 191.4143 13.95701462417868
SL-16 DEB               
1 39720U 92093KL  22181.14365110  .00000593  00000+0  18144-3 0  9996
2 39720  70.7908 340.0023 0031016 329.4492  30.4838 14.45776343432278
SL-16 DEB               
1 39721U 92093KM  22180.86789349  .00000132  00000+0  12333-3 0  9992
2 39721  71.1921 256.9754 0128883 187.0806 172.8492 13.94363911975984
SL-16 DEB               
1 39722U 92093KN  22181.18525728  .00000158  00000+0  13334-3 0  9998
2 39722  70.8949 123.4011 0108813 230.9056 192.4477 13.99669018418863
SL-16 DEB               
1 39724U 92093KQ  22179.97390873  .00000162  00000+0  13533-3 0  9991
2 39724  70.8521  29.4651 0091609 260.5408  98.5343 14.00913478419112
SL-16 DEB               
1 39725U 92093KR  22181.86249165  .00000682  00000+0  39200-3 0  9996
2 39725  71.1740 252.6166 0092866 338.5199  21.2035 14.10628326442887
SL-16 DEB               
1 39726U 92093KS  22181.72969046  .00000001  00000+0  33914-4 0  9991
2 39726  71.1582 297.2095 0123090 343.6595  86.6663 13.90641584416251
LUCH 5V                 
1 39727U 14023A   22182.08528323 -.00000260  00000+0  00000+0 0  9991
2 39727   1.5286  75.6799 0003755  50.4150 278.4189  1.00268474547995
KAZSAT-3                
1 39728U 14023B   22181.61504462  .00000069  00000+0  00000+0 0  9994
2 39728   0.0246  83.4629 0000635 143.4502 331.6467  1.00271350 27938
BREEZE-M R/B            
1 39729U 14023C   22180.86428001 -.00000172  00000+0  00000+0 0  9991
2 39729   6.5612  61.5663 0623311 172.1035 188.7390  0.92544574 27571
KAZEOSAT 1              
1 39731U 14024A   22181.81004825  .00000098  00000+0  43388-4 0  9992
2 39731  98.4636 257.1923 0001189  94.5173 265.6148 14.41993851430013
NAVSTAR 70 (USA 251)    
1 39741U 14026A   22181.58843737 -.00000078  00000+0  00000+0 0  9990
2 39741  56.5738  27.7175 0026512 307.6000  52.2144  2.00555298 59504
DELTA 4 R/B             
1 39742U 14026B   22177.55661260 -.00000092  00000+0  00000+0 0  9998
2 39742  56.4176  35.3364 0015448 101.5580 258.6749  1.93899357 54927
COSMOS 2496             
1 39761U 14028A   22182.24421725  .00000005  00000+0 -34775-4 0  9998
2 39761  82.4459 295.0502 0019211 355.3455   4.7449 12.42891813367831
COSMOS 2497             
1 39762U 14028B   22181.81351256  .00000012  00000+0  18792-4 0  9990
2 39762  82.4511 296.4364 0019866 349.2566  10.8093 12.42872806367781
COSMOS 2498             
1 39763U 14028C   22181.86462153  .00000001  00000+0 -61233-4 0  9992
2 39763  82.4471 295.4534 0020135 349.4112  10.6538 12.42905095367795
BREEZE-KM R/B           
1 39764U 14028D   22181.87666894  .00000003  00000+0 -33407-4 0  9996
2 39764  82.4402 147.8879 0229337 155.9350 205.2676 12.83518425379780
COSMOS 2499 (RS-47)     
1 39765U 14028E   22181.89528289  .00000034  00000+0  81521-4 0  9997
2 39765  82.4415 149.1424 0230935 158.9534 202.1266 12.83006685379443
ALOS-2                  
1 39766U 14029A   22182.20197486 -.00000085  00000+0 -45162-5 0  9996
2 39766  97.9217 279.1330 0001623  89.7383 270.4032 14.79470701437667
UNIFORM 1               
1 39767U 14029B   22182.15961842  .00000727  00000+0  92385-4 0  9995
2 39767  97.8397 274.7048 0007090  55.3486 304.8399 14.84603349438818
SOCRATES                
1 39768U 14029C   22182.00476105  .00000781  00000+0  97558-4 0  9990
2 39768  97.8669 280.2128 0008104  70.9486 289.2587 14.85112895438976
RISING 2                
1 39769U 14029D   22182.17079372  .00000470  00000+0  64805-4 0  9998
2 39769  97.8002 265.2371 0005399  49.0522 311.1156 14.82586264438364
SPROUT                  
1 39770U 14029E   22182.00580961  .00003897  00000+0  39943-3 0  9993
2 39770  97.9443 299.0287 0009536  50.0090 310.1933 14.91024350439687
